{
    "links": {
        "self": "http://www.neowsapp.com/rest/v1/neo/3691096?api_key=iIulBulltgU6a56xZRHN4H3l9WmuAYTsLGpBGhQ2"
    },
    "id": "3691096",
    "neo_reference_id": "3691096",
    "name": "(2014 SS260)",
    "designation": "2014 SS260",
    "nasa_jpl_url": "http://ssd.jpl.nasa.gov/sbdb.cgi?sstr=3691096",
    "absolute_magnitude_h": 26.6,
    "estimated_diameter": {
        "kilometers": {
            "estimated_diameter_min": 0.0127219879,
            "estimated_diameter_max": 0.0284472297
        },
        "meters": {
            "estimated_diameter_min": 12.7219878539,
            "estimated_diameter_max": 28.4472296503
        },
        "miles": {
            "estimated_diameter_min": 0.0079050743,
            "estimated_diameter_max": 0.0176762835
        },
        "feet": {
            "estimated_diameter_min": 41.7388066307,
            "estimated_diameter_max": 93.330808926
        }
    },
    "is_potentially_hazardous_asteroid": false,
    "close_approach_data": [
        {
            "close_approach_date": "2014-09-28",
            "close_approach_date_full": "2014-Sep-28 19:49",
            "epoch_date_close_approach": 1411933740000,
            "relative_velocity": {
                "kilometers_per_second": "13.4116984718",
                "kilometers_per_hour": "48282.11449835",
                "miles_per_hour": "30000.6283114887"
            },
            "miss_distance": {
                "astronomical": "0.0071598796",
                "lunar": "2.7851931644",
                "kilometers": "1071102.737616452",
                "miles": "665552.3790809576"
            },
            "orbiting_body": "Earth"
        },
        {
            "close_approach_date": "2014-09-28",
            "close_approach_date_full": "2014-Sep-28 22:22",
            "epoch_date_close_approach": 1411942920000,
            "relative_velocity": {
                "kilometers_per_second": "14.3891229527",
                "kilometers_per_hour": "51800.842629769",
                "miles_per_hour": "32187.0291329251"
            },
            "miss_distance": {
                "astronomical": "0.0059604415",
                "lunar": "2.3186117435",
                "kilometers": "891669.352659605",
                "miles": "554057.643748349"
            },
            "orbiting_body": "Moon"
        }
    ],
    "orbital_data": {
        "orbit_id": "5",
        "orbit_determination_date": "2017-04-06 08:38:25",
        "first_observation_date": "2014-09-25",
        "last_observation_date": "2014-09-26",
        "data_arc_in_days": 1,
        "observations_used": 22,
        "orbit_uncertainty": "8",
        "minimum_orbit_intersection": ".0062405",
        "jupiter_tisserand_invariant": "3.760",
        "epoch_osculation": "2456926.5",
        "eccentricity": ".5698999635080608",
        "semi_major_axis": "1.875131278551075",
        "inclination": "3.03541942593119",
        "ascending_node_longitude": "191.7288773914112",
        "orbital_period": "937.8771266083954",
        "perihelion_distance": ".8064940313319938",
        "perihelion_argument": "235.6526513675261",
        "aphelion_distance": "2.943768525770156",
        "perihelion_time": "2456971.760152955101",
        "mean_anomaly": "342.6270898377078",
        "mean_motion": ".3838455910550377",
        "equinox": "J2000",
        "orbit_class": {
            "orbit_class_type": "APO",
            "orbit_class_description": "Near-Earth asteroid orbits which cross the Earth’s orbit similar to that of 1862 Apollo",
            "orbit_class_range": "a (semi-major axis) > 1.0 AU; q (perihelion) < 1.017 AU"
        }
    },
    "is_sentry_object": false
}